[{"OBJECT_NAME":"STARLINK-32546","OBJECT_ID":"2024-222W","EPOCH":"2026-03-09T12:54:43.764192","MEAN_MOTION":15.27587305,"ECCENTRICITY":0.00014891,"INCLINATION":42.9997,"RA_OF_ASC_NODE":133.7635,"ARG_OF_PERICENTER":270.8026,"MEAN_ANOMALY":89.2655,"EPHEMERIS_TYPE":0,"CLASSIFICATION_TYPE":"U","NORAD_CAT_ID":62134,"ELEMENT_SET_NO":999,"REV_AT_EPOCH":7265,"BSTAR":0.00084572994,"MEAN_MOTION_DOT":0.00023089,"MEAN_MOTION_DDOT":0},{"OBJECT_NAME":"PEGASUS R\/B","OBJECT_ID":"2007-015B","EPOCH":"2026-03-09T10:58:33.801024","MEAN_MOTION":15.26741121,"ECCENTRICITY":0.00105976,"INCLINATION":97.9168,"RA_OF_ASC_NODE":31.3919,"ARG_OF_PERICENTER":317.6341,"MEAN_ANOMALY":42.4077,"EPHEMERIS_TYPE":0,"CLASSIFICATION_TYPE":"U","NORAD_CAT_ID":31305,"ELEMENT_SET_NO":999,"REV_AT_EPOCH":3383,"BSTAR":0.00044093522,"MEAN_MOTION_DOT":0.00011537,"MEAN_MOTION_DDOT":0}]
